start=new Date('2021-09-14T00:00:00.000Z').valueOf();
sats=[{"REV_AT_EPOCH":"2939","TIME_SYSTEM":"UTC","OBJECT_NAME":"STARLINK-2349","GP_ID":"184664567","OBJECT_TYPE":"PAYLOAD","PERIAPSIS":"545.893","MEAN_ELEMENT_THEORY":"SGP4","DECAY_DATE":null,"RCS_SIZE":"LARGE","EPOCH":"2021-09-13T21:30:20.752992","MEAN_MOTION":"15.06388940","APOAPSIS":"548.602","ECCENTRICITY":"0.00019560","TLE_LINE2":"2 47889  53.0568  63.9492 0001956 105.3793 254.7412 15.06388940 29399","BSTAR":"-0.00003644900000","LAUNCH_DATE":"2021-03-14","CLASSIFICATION_TYPE":"U","PERIOD":"95.593","SITE":"AFETR","TLE_LINE1":"1 47889U 21021AF  21256.89607353 -.00000824  00000-0 -36449-4 0  9995","INCLINATION":"53.0568","EPHEMERIS_TYPE":"0","MEAN_ANOMALY":"254.7412","SEMIMAJOR_AXIS":"6925.382","REF_FRAME":"TEME","MEAN_MOTION_DOT":"-0.00000824","FILE":"3115005","ARG_OF_PERICENTER":"105.3793","COUNTRY_CODE":"US","RA_OF_ASC_NODE":"63.9492","ELEMENT_SET_NO":"999","MEAN_MOTION_DDOT":"0.0000000000000","CENTER_NAME":"EARTH","NORAD_CAT_ID":"47889","OBJECT_ID":"2021-021AF"},{"CENTER_NAME":"EARTH","NORAD_CAT_ID":"47890","OBJECT_ID":"2021-021AG","FILE":"3115005","ARG_OF_PERICENTER":"94.8868","COUNTRY_CODE":"US","RA_OF_ASC_NODE":"73.8494","ELEMENT_SET_NO":"999","MEAN_MOTION_DDOT":"0.0000000000000","MEAN_ANOMALY":"265.2355","EPHEMERIS_TYPE":"0","SEMIMAJOR_AXIS":"6925.361","REF_FRAME":"TEME","MEAN_MOTION_DOT":"0.00000946","LAUNCH_DATE":"2021-03-14","BSTAR":"0.00008244600000","CLASSIFICATION_TYPE":"U","PERIOD":"95.592","SITE":"AFETR","TLE_LINE1":"1 47890U 21021AG  21256.91725477  .00000946  00000-0  82446-4 0  9999","INCLINATION":"53.0559","ECCENTRICITY":"0.00020450","TLE_LINE2":"2 47890  53.0559  73.8494 0002045  94.8868 265.2355 15.06395809 28257","MEAN_MOTION":"15.06395809","APOAPSIS":"548.643","MEAN_ELEMENT_THEORY":"SGP4","DECAY_DATE":null,"RCS_SIZE":"LARGE","EPOCH":"2021-09-13T22:00:50.812128","REV_AT_EPOCH":"2825","TIME_SYSTEM":"UTC","OBJECT_NAME":"STARLINK-2350","GP_ID":"184663332","OBJECT_TYPE":"PAYLOAD","PERIAPSIS":"545.810"},{"FILE":"3115005","ARG_OF_PERICENTER":"94.2605","MEAN_MOTION_DDOT":"0.0000000000000","ELEMENT_SET_NO":"999","RA_OF_ASC_NODE":"73.9148","COUNTRY_CODE":"US","NORAD_CAT_ID":"47891","CENTER_NAME":"EARTH","OBJECT_ID":"2021-021AH","CLASSIFICATION_TYPE":"U","PERIOD":"95.593","LAUNCH_DATE":"2021-03-14","BSTAR":"-0.00005884200000","INCLINATION":"53.0547","TLE_LINE1":"1 47891U 21021AH  21256.90251909 -.00001158  00000-0 -58842-4 0  9994","SITE":"AFETR","SEMIMAJOR_AXIS":"6925.378","REF_FRAME":"TEME","MEAN_ANOMALY":"265.8561","EPHEMERIS_TYPE":"0","MEAN_MOTION_DOT":"-0.00001158","MEAN_MOTION":"15.06390554","APOAPSIS":"548.315","TLE_LINE2":"2 47891  53.0547  73.9148 0001548  94.2605 265.8561 15.06390554 29362","ECCENTRICITY":"0.00015480","OBJECT_NAME":"STARLINK-2351","TIME_SYSTEM":"UTC","REV_AT_EPOCH":"2936","PERIAPSIS":"546.170","OBJECT_TYPE":"PAYLOAD","GP_ID":"184663582","MEAN_ELEMENT_THEORY":"SGP4","RCS_SIZE":"LARGE","EPOCH":"2021-09-13T21:39:37.649376","DECAY_DATE":null},{"ELEMENT_SET_NO":"999","COUNTRY_CODE":"US","RA_OF_ASC_NODE":"73.8341","MEAN_MOTION_DDOT":"0.0000000000000","ARG_OF_PERICENTER":"97.8108","FILE":"3115005","OBJECT_ID":"2021-021AJ","CENTER_NAME":"EARTH","NORAD_CAT_ID":"47892","TLE_LINE1":"1 47892U 21021AJ  21256.92095238 -.00000183  00000-0  66239-5 0  9994","SITE":"AFETR","INCLINATION":"53.0559","BSTAR":"0.00000662390000","LAUNCH_DATE":"2021-03-14","PERIOD":"95.592","CLASSIFICATION_TYPE":"U","MEAN_MOTION_DOT":"-0.00000183","SEMIMAJOR_AXIS":"6925.356","REF_FRAME":"TEME","EPHEMERIS_TYPE":"0","MEAN_ANOMALY":"262.3112","APOAPSIS":"548.635","MEAN_MOTION":"15.06397542","ECCENTRICITY":"0.00020410","TLE_LINE2":"2 47892  53.0559  73.8341 0002041  97.8108 262.3112 15.06397542 29207","GP_ID":"184664334","PERIAPSIS":"545.808","OBJECT_TYPE":"PAYLOAD","REV_AT_EPOCH":"2920","OBJECT_NAME":"STARLINK-2352","TIME_SYSTEM":"UTC","EPOCH":"2021-09-13T22:06:10.285632","RCS_SIZE":"LARGE","DECAY_DATE":null,"MEAN_ELEMENT_THEORY":"SGP4"},{"MEAN_MOTION_DOT":"0.00000985","REF_FRAME":"TEME","SEMIMAJOR_AXIS":"6925.356","EPHEMERIS_TYPE":"0","MEAN_ANOMALY":"255.2375","TLE_LINE1":"1 47894U 21021AL  21256.66016253  .00000985  00000-0  85003-4 0  9995","SITE":"AFETR","INCLINATION":"53.0568","BSTAR":"0.00008500300000","LAUNCH_DATE":"2021-03-14","CLASSIFICATION_TYPE":"U","PERIOD":"95.592","OBJECT_ID":"2021-021AL","CENTER_NAME":"EARTH","NORAD_CAT_ID":"47894","ELEMENT_SET_NO":"999","COUNTRY_CODE":"US","RA_OF_ASC_NODE":"65.0068","MEAN_MOTION_DDOT":"0.0000000000000","FILE":"3115005","ARG_OF_PERICENTER":"104.8797","EPOCH":"2021-09-13T15:50:38.042592","RCS_SIZE":"LARGE","DECAY_DATE":null,"MEAN_ELEMENT_THEORY":"SGP4","GP_ID":"184664067","PERIAPSIS":"546.077","OBJECT_TYPE":"PAYLOAD","REV_AT_EPOCH":"2925","OBJECT_NAME":"STARLINK-2354","TIME_SYSTEM":"UTC","ECCENTRICITY":"0.00016510","TLE_LINE2":"2 47894  53.0568  65.0068 0001651 104.8797 255.2375 15.06397700 29250","APOAPSIS":"548.364","MEAN_MOTION":"15.06397700"},{"ECCENTRICITY":"0.00016630","TLE_LINE2":"2 47895  53.0566  64.0631 0001663 103.8808 256.2366 15.06395411 29314","MEAN_MOTION":"15.06395411","APOAPSIS":"548.379","MEAN_ELEMENT_THEORY":"SGP4","RCS_SIZE":"LARGE","EPOCH":"2021-09-13T20:53:10.880448","DECAY_DATE":null,"REV_AT_EPOCH":"2931","OBJECT_NAME":"STARLINK-2355","TIME_SYSTEM":"UTC","GP_ID":"184662832","PERIAPSIS":"546.076","OBJECT_TYPE":"PAYLOAD","CENTER_NAME":"EARTH","NORAD_CAT_ID":"47895","OBJECT_ID":"2021-021AM","FILE":"3115005","ARG_OF_PERICENTER":"103.8808","ELEMENT_SET_NO":"999","COUNTRY_CODE":"US","RA_OF_ASC_NODE":"64.0631","MEAN_MOTION_DDOT":"0.0000000000000","REF_FRAME":"TEME","SEMIMAJOR_AXIS":"6925.363","MEAN_ANOMALY":"256.2366","EPHEMERIS_TYPE":"0","MEAN_MOTION_DOT":"0.00000902","LAUNCH_DATE":"2021-03-14","BSTAR":"0.00007944700000","CLASSIFICATION_TYPE":"U","PERIOD":"95.592","TLE_LINE1":"1 47895U 21021AM  21256.87026482  .00000902  00000-0  79447-4 0  9998","SITE":"AFETR","INCLINATION":"53.0566"},{"GP_ID":"184663082","OBJECT_TYPE":"PAYLOAD","PERIAPSIS":"546.179","REV_AT_EPOCH":"2908","TIME_SYSTEM":"UTC","OBJECT_NAME":"STARLINK-2356","DECAY_DATE":null,"RCS_SIZE":"LARGE","EPOCH":"2021-09-13T22:18:45.450144","MEAN_ELEMENT_THEORY":"SGP4","APOAPSIS":"548.253","MEAN_MOTION":"15.06399164","ECCENTRICITY":"0.00014970","TLE_LINE2":"2 47896  53.0537  78.7585 0001497 109.9120 250.2030 15.06399164 29087","SITE":"AFETR","TLE_LINE1":"1 47896U 21021AN  21256.92969271 -.00000269  00000-0  84482-6 0  9991","INCLINATION":"53.0537","BSTAR":"0.00000084482000","LAUNCH_DATE":"2021-03-14","PERIOD":"95.592","CLASSIFICATION_TYPE":"U","MEAN_MOTION_DOT":"-0.00000269","EPHEMERIS_TYPE":"0","MEAN_ANOMALY":"250.2030","SEMIMAJOR_AXIS":"6925.351","REF_FRAME":"TEME","RA_OF_ASC_NODE":"78.7585","COUNTRY_CODE":"US","ELEMENT_SET_NO":"999","MEAN_MOTION_DDOT":"0.0000000000000","ARG_OF_PERICENTER":"109.9120","FILE":"3115005","OBJECT_ID":"2021-021AN","CENTER_NAME":"EARTH","NORAD_CAT_ID":"47896"},{"RCS_SIZE":"LARGE","EPOCH":"2021-09-13T20:47:52.292544","DECAY_DATE":null,"MEAN_ELEMENT_THEORY":"SGP4","PERIAPSIS":"546.094","OBJECT_TYPE":"PAYLOAD","GP_ID":"184663834","OBJECT_NAME":"STARLINK-2357","TIME_SYSTEM":"UTC","REV_AT_EPOCH":"2934","TLE_LINE2":"2 47897  53.0565  64.0803 0001635 102.7638 257.3534 15.06395708 29345","ECCENTRICITY":"0.00016350","APOAPSIS":"548.359","MEAN_MOTION":"15.06395708","MEAN_MOTION_DOT":"-0.00001254","REF_FRAME":"TEME","SEMIMAJOR_AXIS":"6925.362","EPHEMERIS_TYPE":"0","MEAN_ANOMALY":"257.3534","INCLINATION":"53.0565","TLE_LINE1":"1 47897U 21021AP  21256.86657746 -.00001254  00000-0 -65277-4 0  9991","SITE":"AFETR","PERIOD":"95.592","CLASSIFICATION_TYPE":"U","LAUNCH_DATE":"2021-03-14","BSTAR":"-0.00006527700000","OBJECT_ID":"2021-021AP","NORAD_CAT_ID":"47897","CENTER_NAME":"EARTH","MEAN_MOTION_DDOT":"0.0000000000000","ELEMENT_SET_NO":"999","COUNTRY_CODE":"US","RA_OF_ASC_NODE":"64.0803","FILE":"3115005","ARG_OF_PERICENTER":"102.7638"},{"OBJECT_ID":"2021-021AQ","NORAD_CAT_ID":"47898","CENTER_NAME":"EARTH","MEAN_MOTION_DDOT":"0.0000000000000","RA_OF_ASC_NODE":"64.9898","COUNTRY_CODE":"US","ELEMENT_SET_NO":"999","ARG_OF_PERICENTER":"98.4742","FILE":"3115005","MEAN_MOTION_DOT":"-0.00001228","MEAN_ANOMALY":"261.6471","EPHEMERIS_TYPE":"0","SEMIMAJOR_AXIS":"6925.370","REF_FRAME":"TEME","INCLINATION":"53.0572","SITE":"AFETR","TLE_LINE1":"1 47898U 21021AQ  21256.66385908 -.00001228  00000-0 -63570-4 0  9993","PERIOD":"95.593","CLASSIFICATION_TYPE":"U","BSTAR":"-0.00006357000000","LAUNCH_DATE":"2021-03-14","TLE_LINE2":"2 47898  53.0572  64.9898 0001981  98.4742 261.6471 15.06392972 29256","ECCENTRICITY":"0.00019810","APOAPSIS":"548.607","MEAN_MOTION":"15.06392972","DECAY_DATE":null,"RCS_SIZE":"LARGE","EPOCH":"2021-09-13T15:55:57.424512","MEAN_ELEMENT_THEORY":"SGP4","OBJECT_TYPE":"PAYLOAD","PERIAPSIS":"545.863","GP_ID":"184664568","TIME_SYSTEM":"UTC","OBJECT_NAME":"STARLINK-2358","REV_AT_EPOCH":"2925"},{"APOAPSIS":"548.460","MEAN_MOTION":"15.06401959","TLE_LINE2":"2 47899  53.0567  54.1106 0001809 121.4745 238.6421 15.06401959 29483","ECCENTRICITY":"0.00018090","PERIAPSIS":"545.955","OBJECT_TYPE":"PAYLOAD","GP_ID":"184663333","OBJECT_NAME":"STARLINK-2359","TIME_SYSTEM":"UTC","REV_AT_EPOCH":"2948","RCS_SIZE":"LARGE","EPOCH":"2021-09-13T20:38:34.454400","DECAY_DATE":null,"MEAN_ELEMENT_THEORY":"SGP4","MEAN_MOTION_DDOT":"0.0000000000000","ELEMENT_SET_NO":"999","RA_OF_ASC_NODE":"54.1106","COUNTRY_CODE":"US","FILE":"3115005","ARG_OF_PERICENTER":"121.4745","OBJECT_ID":"2021-021AR","NORAD_CAT_ID":"47899","CENTER_NAME":"EARTH","INCLINATION":"53.0567","TLE_LINE1":"1 47899U 21021AR  21256.86012100 -.00000369  00000-0 -58665-5 0  9992","SITE":"AFETR","PERIOD":"95.592","CLASSIFICATION_TYPE":"U","BSTAR":"-0.00000586650000","LAUNCH_DATE":"2021-03-14","MEAN_MOTION_DOT":"-0.00000369","SEMIMAJOR_AXIS":"6925.343","REF_FRAME":"TEME","MEAN_ANOMALY":"238.6421","EPHEMERIS_TYPE":"0"}];
